STARLINK-36277          
1 68305U 26057M   26089.50002314 -.01364865  57758-3 -28376-2 0  9990
2 68305  97.2778 212.7773 0001432  62.0760  66.7325 15.99181036  2716
STARLINK-36307          
1 68306U 26057N   26089.50002314 -.01304128  53009-3 -27316-2 0  9995
2 68306  97.2784 212.7761 0001494  56.2992  68.6460 15.99038525  2659
STARLINK-36264          
1 68307U 26057P   26089.50002314 -.01442686  64109-3 -29768-2 0  9994
2 68307  97.2780 212.7794 0001527  55.3883  77.5612 15.99326888  2715
STARLINK-37138          
1 68308U 26057Q   26089.50002314 -.01448378  64649-3 -29723-2 0  9999
2 68308  97.2774 212.7796 0001580  55.6659  79.7451 15.99424731  2388
STARLINK-37149          
1 68309U 26057R   26089.50002314 -.01498621  68961-3 -30561-2 0  9999
2 68309  97.2770 212.7810 0001586  56.6360  81.9223 15.99543648  2491
STARLINK-37148          
1 68310U 26057S   26089.50002314 -.01520597  71010-3 -30668-2 0  9996
2 68310  97.2768 212.7839 0001603  56.2290  88.9049 15.99743710  2607
STARLINK-37140          
1 68311U 26057T   26089.50002314 -.01512608  70242-3 -30673-2 0  9993
2 68311  97.2771 212.7828 0001494  62.8843  79.1504 15.99646458  2761
STARLINK-36854          
1 68312U 26057U   26089.50002314 -.01516201  70700-3 -30423-2 0  9999
2 68312  97.2768 212.7857 0001669  58.2598  89.8794 15.99833916  2553
STARLINK-36815          
1 68313U 26057V   26089.50002314 -.01511045  70330-3 -30156-2 0  9993
2 68313  97.2770 212.7874 0001423  70.7725  80.9635 15.99929818  2558
STARLINK-37155          
1 68314U 26057W   26089.50002314 -.01536142  72685-3 -30306-2 0  9991
2 68314  97.2764 212.7902 0001540  63.3730  95.8735 16.00136720  2605
STARLINK-37150          
1 68315U 26057X   26089.25002315 -.01354769  57917-3 -25912-2 0  9996
2 68315  97.2769 212.5180 0001500  61.2774  95.1761 16.00657433  2564
STARLINK-37154          
1 68316U 26057Y   26089.25002315 -.01375485  59784-3 -25836-2 0  9994
2 68316  97.2763 212.5228 0001596  57.8044 109.4711 16.00977533  2467
