CCSDS_OMM_VERS = 2.0
CREATION_DATE  = 
ORIGINATOR     = 

OBJECT_NAME    = STARLINK-36277
OBJECT_ID      = 2026-057M
CENTER_NAME    = EARTH
REF_FRAME      = TEME
TIME_SYSTEM    = UTC
MEAN_ELEMENT_THEORY = SGP/SGP4

EPOCH          = 2026-03-30T12:00:01.999296
MEAN_MOTION    = 15.99181036
ECCENTRICITY   = .0001432
INCLINATION    = 97.2778
RA_OF_ASC_NODE = 212.7773
ARG_OF_PERICENTER = 62.0760
MEAN_ANOMALY   = 66.7325

EPHEMERIS_TYPE = 0
CLASSIFICATION_TYPE = U
NORAD_CAT_ID   = 68305
ELEMENT_SET_NO = 999
REV_AT_EPOCH   = 271
BSTAR          = -.28376E-2
MEAN_MOTION_DOT = -.1364865E-1
MEAN_MOTION_DDOT = .57758E-3

CCSDS_OMM_VERS = 2.0
CREATION_DATE  = 
ORIGINATOR     = 

OBJECT_NAME    = STARLINK-36307
OBJECT_ID      = 2026-057N
CENTER_NAME    = EARTH
REF_FRAME      = TEME
TIME_SYSTEM    = UTC
MEAN_ELEMENT_THEORY = SGP/SGP4

EPOCH          = 2026-03-30T12:00:01.999296
MEAN_MOTION    = 15.99038525
ECCENTRICITY   = .0001494
INCLINATION    = 97.2784
RA_OF_ASC_NODE = 212.7761
ARG_OF_PERICENTER = 56.2992
MEAN_ANOMALY   = 68.6460

EPHEMERIS_TYPE = 0
CLASSIFICATION_TYPE = U
NORAD_CAT_ID   = 68306
ELEMENT_SET_NO = 999
REV_AT_EPOCH   = 265
BSTAR          = -.27316E-2
MEAN_MOTION_DOT = -.1304128E-1
MEAN_MOTION_DDOT = .53009E-3

CCSDS_OMM_VERS = 2.0
CREATION_DATE  = 
ORIGINATOR     = 

OBJECT_NAME    = STARLINK-36264
OBJECT_ID      = 2026-057P
CENTER_NAME    = EARTH
REF_FRAME      = TEME
TIME_SYSTEM    = UTC
MEAN_ELEMENT_THEORY = SGP/SGP4

EPOCH          = 2026-03-30T12:00:01.999296
MEAN_MOTION    = 15.99326888
ECCENTRICITY   = .0001527
INCLINATION    = 97.2780
RA_OF_ASC_NODE = 212.7794
ARG_OF_PERICENTER = 55.3883
MEAN_ANOMALY   = 77.5612

EPHEMERIS_TYPE = 0
CLASSIFICATION_TYPE = U
NORAD_CAT_ID   = 68307
ELEMENT_SET_NO = 999
REV_AT_EPOCH   = 271
BSTAR          = -.29768E-2
MEAN_MOTION_DOT = -.1442686E-1
MEAN_MOTION_DDOT = .64109E-3

CCSDS_OMM_VERS = 2.0
CREATION_DATE  = 
ORIGINATOR     = 

OBJECT_NAME    = STARLINK-37138
OBJECT_ID      = 2026-057Q
CENTER_NAME    = EARTH
REF_FRAME      = TEME
TIME_SYSTEM    = UTC
MEAN_ELEMENT_THEORY = SGP/SGP4

EPOCH          = 2026-03-30T12:00:01.999296
MEAN_MOTION    = 15.99424731
ECCENTRICITY   = .000158
INCLINATION    = 97.2774
RA_OF_ASC_NODE = 212.7796
ARG_OF_PERICENTER = 55.6659
MEAN_ANOMALY   = 79.7451

EPHEMERIS_TYPE = 0
CLASSIFICATION_TYPE = U
NORAD_CAT_ID   = 68308
ELEMENT_SET_NO = 999
REV_AT_EPOCH   = 238
BSTAR          = -.29723E-2
MEAN_MOTION_DOT = -.1448378E-1
MEAN_MOTION_DDOT = .64649E-3

CCSDS_OMM_VERS = 2.0
CREATION_DATE  = 
ORIGINATOR     = 

OBJECT_NAME    = STARLINK-37149
OBJECT_ID      = 2026-057R
CENTER_NAME    = EARTH
REF_FRAME      = TEME
TIME_SYSTEM    = UTC
MEAN_ELEMENT_THEORY = SGP/SGP4

EPOCH          = 2026-03-30T12:00:01.999296
MEAN_MOTION    = 15.99543648
ECCENTRICITY   = .0001586
INCLINATION    = 97.2770
RA_OF_ASC_NODE = 212.7810
ARG_OF_PERICENTER = 56.6360
MEAN_ANOMALY   = 81.9223

EPHEMERIS_TYPE = 0
CLASSIFICATION_TYPE = U
NORAD_CAT_ID   = 68309
ELEMENT_SET_NO = 999
REV_AT_EPOCH   = 249
BSTAR          = -.30561E-2
MEAN_MOTION_DOT = -.1498621E-1
MEAN_MOTION_DDOT = .68961E-3

CCSDS_OMM_VERS = 2.0
CREATION_DATE  = 
ORIGINATOR     = 

OBJECT_NAME    = STARLINK-37148
OBJECT_ID      = 2026-057S
CENTER_NAME    = EARTH
REF_FRAME      = TEME
TIME_SYSTEM    = UTC
MEAN_ELEMENT_THEORY = SGP/SGP4

EPOCH          = 2026-03-30T12:00:01.999296
MEAN_MOTION    = 15.99743710
ECCENTRICITY   = .0001603
INCLINATION    = 97.2768
RA_OF_ASC_NODE = 212.7839
ARG_OF_PERICENTER = 56.2290
MEAN_ANOMALY   = 88.9049

EPHEMERIS_TYPE = 0
CLASSIFICATION_TYPE = U
NORAD_CAT_ID   = 68310
ELEMENT_SET_NO = 999
REV_AT_EPOCH   = 260
BSTAR          = -.30668E-2
MEAN_MOTION_DOT = -.1520597E-1
MEAN_MOTION_DDOT = .7101E-3

CCSDS_OMM_VERS = 2.0
CREATION_DATE  = 
ORIGINATOR     = 

OBJECT_NAME    = STARLINK-37140
OBJECT_ID      = 2026-057T
CENTER_NAME    = EARTH
REF_FRAME      = TEME
TIME_SYSTEM    = UTC
MEAN_ELEMENT_THEORY = SGP/SGP4

EPOCH          = 2026-03-30T12:00:01.999296
MEAN_MOTION    = 15.99646458
ECCENTRICITY   = .0001494
INCLINATION    = 97.2771
RA_OF_ASC_NODE = 212.7828
ARG_OF_PERICENTER = 62.8843
MEAN_ANOMALY   = 79.1504

EPHEMERIS_TYPE = 0
CLASSIFICATION_TYPE = U
NORAD_CAT_ID   = 68311
ELEMENT_SET_NO = 999
REV_AT_EPOCH   = 276
BSTAR          = -.30673E-2
MEAN_MOTION_DOT = -.1512608E-1
MEAN_MOTION_DDOT = .70242E-3

CCSDS_OMM_VERS = 2.0
CREATION_DATE  = 
ORIGINATOR     = 

OBJECT_NAME    = STARLINK-36854
OBJECT_ID      = 2026-057U
CENTER_NAME    = EARTH
REF_FRAME      = TEME
TIME_SYSTEM    = UTC
MEAN_ELEMENT_THEORY = SGP/SGP4

EPOCH          = 2026-03-30T12:00:01.999296
MEAN_MOTION    = 15.99833916
ECCENTRICITY   = .0001669
INCLINATION    = 97.2768
RA_OF_ASC_NODE = 212.7857
ARG_OF_PERICENTER = 58.2598
MEAN_ANOMALY   = 89.8794

EPHEMERIS_TYPE = 0
CLASSIFICATION_TYPE = U
NORAD_CAT_ID   = 68312
ELEMENT_SET_NO = 999
REV_AT_EPOCH   = 255
BSTAR          = -.30423E-2
MEAN_MOTION_DOT = -.1516201E-1
MEAN_MOTION_DDOT = .707E-3

CCSDS_OMM_VERS = 2.0
CREATION_DATE  = 
ORIGINATOR     = 

OBJECT_NAME    = STARLINK-36815
OBJECT_ID      = 2026-057V
CENTER_NAME    = EARTH
REF_FRAME      = TEME
TIME_SYSTEM    = UTC
MEAN_ELEMENT_THEORY = SGP/SGP4

EPOCH          = 2026-03-30T12:00:01.999296
MEAN_MOTION    = 15.99929818
ECCENTRICITY   = .0001423
INCLINATION    = 97.2770
RA_OF_ASC_NODE = 212.7874
ARG_OF_PERICENTER = 70.7725
MEAN_ANOMALY   = 80.9635

EPHEMERIS_TYPE = 0
CLASSIFICATION_TYPE = U
NORAD_CAT_ID   = 68313
ELEMENT_SET_NO = 999
REV_AT_EPOCH   = 255
BSTAR          = -.30156E-2
MEAN_MOTION_DOT = -.1511045E-1
MEAN_MOTION_DDOT = .7033E-3

CCSDS_OMM_VERS = 2.0
CREATION_DATE  = 
ORIGINATOR     = 

OBJECT_NAME    = STARLINK-37155
OBJECT_ID      = 2026-057W
CENTER_NAME    = EARTH
REF_FRAME      = TEME
TIME_SYSTEM    = UTC
MEAN_ELEMENT_THEORY = SGP/SGP4

EPOCH          = 2026-03-30T12:00:01.999296
MEAN_MOTION    = 16.00136720
ECCENTRICITY   = .000154
INCLINATION    = 97.2764
RA_OF_ASC_NODE = 212.7902
ARG_OF_PERICENTER = 63.3730
MEAN_ANOMALY   = 95.8735

EPHEMERIS_TYPE = 0
CLASSIFICATION_TYPE = U
NORAD_CAT_ID   = 68314
ELEMENT_SET_NO = 999
REV_AT_EPOCH   = 260
BSTAR          = -.30306E-2
MEAN_MOTION_DOT = -.1536142E-1
MEAN_MOTION_DDOT = .72685E-3

CCSDS_OMM_VERS = 2.0
CREATION_DATE  = 
ORIGINATOR     = 

OBJECT_NAME    = STARLINK-37150
OBJECT_ID      = 2026-057X
CENTER_NAME    = EARTH
REF_FRAME      = TEME
TIME_SYSTEM    = UTC
MEAN_ELEMENT_THEORY = SGP/SGP4

EPOCH          = 2026-03-30T06:00:02.000160
MEAN_MOTION    = 16.00657433
ECCENTRICITY   = .00015
INCLINATION    = 97.2769
RA_OF_ASC_NODE = 212.5180
ARG_OF_PERICENTER = 61.2774
MEAN_ANOMALY   = 95.1761

EPHEMERIS_TYPE = 0
CLASSIFICATION_TYPE = U
NORAD_CAT_ID   = 68315
ELEMENT_SET_NO = 999
REV_AT_EPOCH   = 256
BSTAR          = -.25911708E-2
MEAN_MOTION_DOT = -.1354769E-1
MEAN_MOTION_DDOT = .57917001E-3

CCSDS_OMM_VERS = 2.0
CREATION_DATE  = 
ORIGINATOR     = 

OBJECT_NAME    = STARLINK-37154
OBJECT_ID      = 2026-057Y
CENTER_NAME    = EARTH
REF_FRAME      = TEME
TIME_SYSTEM    = UTC
MEAN_ELEMENT_THEORY = SGP/SGP4

EPOCH          = 2026-03-30T06:00:02.000160
MEAN_MOTION    = 16.00977533
ECCENTRICITY   = .00015963
INCLINATION    = 97.2763
RA_OF_ASC_NODE = 212.5228
ARG_OF_PERICENTER = 57.8044
MEAN_ANOMALY   = 109.4711

EPHEMERIS_TYPE = 0
CLASSIFICATION_TYPE = U
NORAD_CAT_ID   = 68316
ELEMENT_SET_NO = 999
REV_AT_EPOCH   = 246
BSTAR          = -.25835505E-2
MEAN_MOTION_DOT = -.1375485E-1
MEAN_MOTION_DDOT = .59783863E-3

